MEAN_MOTION;ECCENTRICITY;INCLINATION;RA_OF_ASC_NODE;ARG_OF_PERICENTER;MEAN_ANOMALY;BSTAR;MEAN_MOTION_DOT;MEAN_MOTION_DDOT;TYPE
1.00270135;0.0001187;2.8713;81.8666;230.1019;208.6968;0;1.12E-6;0;Intelsat
1.00270334;0.0001153;2.873;81.8626;234.0131;83.6535;0;1.1E-6;0;Intelsat
1.00270467;0.0001146;2.8737;81.861;235.7208;208.575;0;1.09E-6;0;Intelsat
1.0027068;0.0001108;2.8753;81.8571;240.016;80.4541;0;1.07E-6;0;Intelsat
1.00270798;0.0001106;2.8759;81.8565;241.5027;176.4546;0;1.06E-6;0;Intelsat
1.00271104;0.0001057;2.8779;81.8515;247.3549;101.8323;0;1.04E-6;0;Intelsat
1.00271207;0.0001053;2.8784;81.8503;249.0079;177.9003;0;1.04E-6;0;Intelsat
1.00271547;0.0001009;2.8804;81.8459;255.1427;98.7367;0;1.02E-6;0;Intelsat
1.00271958;9.68E-5;2.8824;81.8398;261.8977;41.0622;0;1.02E-6;0;Intelsat
1.00272229;9.64E-5;2.8836;81.8373;266.6786;215.4797;0;1.01E-6;0;Intelsat
1.00272662;9.44E-5;2.8855;81.8342;273.7177;135.7205;0;1.02E-6;0;Intelsat
1.00272704;9.44E-5;2.8856;81.8333;274.4786;160.8778;0;1.01E-6;0;Intelsat
1.00273294;9.3E-5;2.888;81.8278;283.8819;154.2879;0;1.02E-6;0;Intelsat
1.0027335;9.29E-5;2.8883;81.8266;284.7672;188.1618;0;1.02E-6;0;Intelsat
1.00273904;9.28E-5;2.8903;81.8216;293.0353;147.9562;0;1.03E-6;0;Intelsat
1.00273959;9.28E-5;2.8905;81.8205;293.8148;180.1128;0;1.03E-6;0;Intelsat
1.00274526;9.35E-5;2.8926;81.8147;301.5765;142.223;0;1.04E-6;0;Intelsat
1.00274692;9.36E-5;2.8933;81.8128;303.4748;243.9909;0;1.04E-6;0;Intelsat
1.00275192;9.49E-5;2.895;81.8062;309.8888;166.5446;0;1.04E-6;0;Intelsat
1.00275322;9.51E-5;2.8955;81.8051;311.0107;249.2078;0;1.05E-6;0;Intelsat
1.00275786;9.61E-5;2.8972;81.7984;316.3809;158.9025;0;1.05E-6;0;Intelsat
1.00276161;9.7E-5;2.8986;81.7935;319.1239;29.5097;0;1.06E-6;0;Intelsat
1.00276161;9.7E-5;2.8986;81.7935;319.1239;29.5097;0;1.05E-6;0;Intelsat
1.00270834;6.13E-5;2.8998;81.7888;326.0452;224.3432;0;1.07E-6;0;Intelsat
1.00271068;6.21E-5;2.9008;81.785;328.1514;23.2213;0;1.07E-6;0;Intelsat
1.00271278;6.24E-5;2.9014;81.7821;331.9423;149.0006;0;1.07E-6;0;Intelsat
1.00271384;6.32E-5;2.9019;81.7812;333.3671;221.9945;0;1.08E-6;0;Intelsat
1.00271617;6.39E-5;2.9028;81.7773;334.7973;19.3912;0;1.08E-6;0;Intelsat
1.00271803;6.38E-5;2.9035;81.7743;337.6343;147.427;0;1.09E-6;0;Intelsat
1.0027229;6.49E-5;2.9056;81.7665;342.1352;144.4349;0;1.1E-6;0;Intelsat
1.00272386;6.56E-5;2.906;81.7655;343.2431;221.1598;0;1.11E-6;0;Intelsat
1.00272746;6.55E-5;2.9076;81.7585;345.4825;141.5547;0;1.12E-6;0;Intelsat
1.00272746;6.55E-5;2.9076;81.7585;345.4825;141.5547;0;1.12E-6;0;Intelsat
1.00273945;6.71E-5;2.9134;81.7355;351.6315;94.3787;0;1.19E-6;0;Intelsat
1.00274356;6.72E-5;2.9157;81.7264;352.4756;122.2577;0;1.21E-6;0;Intelsat
1.0027445;6.7E-5;2.9163;81.7249;352.63;219.4158;0;1.22E-6;0;Intelsat
1.00274581;6.75E-5;2.9171;81.7214;353.4848;354.481;0;1.22E-6;0;Intelsat
1.00274719;6.78E-5;2.9178;81.7185;352.7404;124.8236;0;1.23E-6;0;Intelsat
1.00274905;6.8E-5;2.9191;81.7141;353.4101;331.4668;0;1.23E-6;0;Intelsat
1.00274978;6.86E-5;2.9195;81.7132;353.3956;44.0633;0;1.24E-6;0;Intelsat
1.00269892;8.19E-5;2.922;81.7037;325.1806;132.0574;0;1.25E-6;0;Intelsat
1.0027023;8.54E-5;2.9244;81.6959;325.7984;160.157;0;1.24E-6;0;Intelsat
1.00270529;8.97E-5;2.9267;81.6895;326.6935;162.0924;0;1.22E-6;0;Intelsat
1.00270602;9.16E-5;2.9273;81.6894;326.8404;249.6169;0;1.22E-6;0;Intelsat
1.00270806;9.52E-5;2.9289;81.6843;328.286;137.3825;0;1.2E-6;0;Intelsat
1.0027107;0.0001011;2.9309;81.6809;329.3961;87.2337;0;1.18E-6;0;Intelsat
1.00271142;0.000103;2.9314;81.6788;329.8366;164.538;0;1.17E-6;0;Intelsat
1.00271417;0.0001102;2.9334;81.6751;331.5526;113.7894;0;1.14E-6;0;Intelsat
1.0027147;0.0001119;2.9338;81.6741;332.1153;165.0616;0;1.14E-6;0;Intelsat
1.00271768;0.0001205;2.9358;81.6705;334.305;113.8516;0;1.11E-6;0;Intelsat
1.00271823;0.000122;2.9362;81.6696;334.8992;165.1022;0;1.11E-6;0;Intelsat
1.00272144;0.0001312;2.9382;81.6661;337.2765;110.1319;0;1.09E-6;0;Intelsat
1.00272299;0.0001355;2.9391;81.6653;339.0204;241.5061;0;1.08E-6;0;Intelsat
1.00272617;0.0001438;2.9408;81.6605;340.8117;143.6498;0;1.07E-6;0;Intelsat
1.00273084;0.0001554;2.9432;81.6557;343.8354;138.679;0;1.06E-6;0;Intelsat
1.00273476;0.0001645;2.9451;81.6533;346.216;61.3435;0;1.06E-6;0;Intelsat
1.00269041;0.0001993;2.9476;81.6475;342.0657;94.2055;0;1.07E-6;0;Intelsat
1.00269266;0.0002018;2.9486;81.6458;343.1241;248.6156;0;1.07E-6;0;Intelsat
1.00269676;0.0002088;2.9501;81.6416;344.5322;120.459;0;1.08E-6;0;Intelsat
1.00269876;0.0002105;2.9509;81.6405;345.5105;249.0329;0;1.08E-6;0;Intelsat
1.00270316;0.0002186;2.9526;81.6356;347.6621;146.0473;0;1.09E-6;0;Intelsat
1.00270663;0.0002221;2.9539;81.6326;349.0457;351.9681;0;1.09E-6;0;Intelsat
1.00270927;0.0002267;2.9548;81.6296;350.3489;146.144;0;1.09E-6;0;Intelsat
1.00271262;0.0002298;2.9561;81.6262;351.6047;352.1831;0;1.1E-6;0;Intelsat
1.00271524;0.0002336;2.9571;81.623;352.892;146.4082;0;1.1E-6;0;Intelsat
1.00271903;0.0002365;2.9585;81.6196;354.2202;18.3312;0;1.11E-6;0;Intelsat
1.00271993;0.0002378;2.9588;81.6186;354.7194;69.6384;0;1.11E-6;0;Intelsat
1.00272113;0.000239;2.9593;81.6163;355.3071;146.8043;0;1.11E-6;0;Intelsat
1.00272475;0.000241;2.9607;81.6128;356.418;18.9191;0;1.12E-6;0;Intelsat
1.00272636;0.0002424;2.9613;81.6099;357.2882;121.7341;0;1.12E-6;0;Intelsat
1.00272675;0.0002428;2.9614;81.6095;357.431;147.5091;0;1.12E-6;0;Intelsat
1.00272978;0.0002442;2.9627;81.606;358.2714;353.961;0;1.12E-6;0;Intelsat
1.00273209;0.0002454;2.9636;81.6028;359.378;148.3667;0;1.13E-6;0;Intelsat
1.00273681;0.0002465;2.9655;81.5966;0.9173;123.716;0;1.14E-6;0;Intelsat
1.00273818;0.0002474;2.9662;81.5958;1.3485;226.9557;0;1.15E-6;0;Intelsat
1.00274194;0.0002471;2.9678;81.5896;2.5602;150.8251;0;1.16E-6;0;Intelsat
1.00274452;0.0002479;2.969;81.5862;3.2283;357.4751;0;1.18E-6;0;Intelsat
1.0027461;0.000247;2.9697;81.5834;3.8074;126.473;0;1.19E-6;0;Intelsat
1.00274889;0.0002475;2.9711;81.5796;4.5619;358.9492;0;1.2E-6;0;Intelsat
1.00275039;0.0002463;2.9718;81.5767;4.9883;128.1125;0;1.21E-6;0;Intelsat
1.00275422;0.0002453;2.9737;81.5707;5.8665;104.1008;0;1.23E-6;0;Intelsat
1.00275451;0.000245;2.9738;81.5699;5.9576;129.9284;0;1.23E-6;0;Intelsat
1.00264429;0.000252;2.9758;81.5626;357.7924;114.9826;0;1.27E-6;0;Intelsat
1.00268372;0.0002374;2.9762;81.5632;353.6566;182.211;0;1.27E-6;0;Intelsat
1.00269279;0.0002368;2.9764;81.5629;352.3091;224.0997;0;1.27E-6;0;Intelsat
1.00270043;0.0002407;2.9773;81.5596;351.8111;20.1006;0;1.28E-6;0;Intelsat
1.00270232;0.0002416;2.9781;81.5567;352.3471;149.1223;0;1.28E-6;0;Intelsat
1.0027034;0.00024;2.9787;81.5554;352.2418;252.8977;0;1.29E-6;0;Intelsat
1.00270458;0.00024;2.9795;81.553;352.6725;22.0182;0;1.29E-6;0;Intelsat
1.00270602;0.00024;2.9802;81.55;352.6441;151.6417;0;1.3E-6;0;Intelsat
1.00270805;0.0002383;2.9815;81.5471;352.7451;358.8399;0;1.31E-6;0;Intelsat
1.00270832;0.0002384;2.9816;81.547;352.7628;24.739;0;1.3E-6;0;Intelsat
1.00270969;0.0002387;2.9825;81.5442;352.6726;161.5658;0;1.31E-6;0;Intelsat
1.00271133;0.0002384;2.9837;81.5415;353.1795;1.2242;0;1.31E-6;0;Intelsat
1.00271282;0.0002394;2.9847;81.5387;353.0812;153.3713;0;1.3E-6;0;Intelsat
1.0027146;0.0002393;2.986;81.5363;353.3095;3.8268;0;1.3E-6;0;Intelsat
1.00271608;0.000241;2.987;81.5337;353.3316;159.3404;0;1.29E-6;0;Intelsat
1.00271774;0.0002417;2.9883;81.5316;353.5563;6.4531;0;1.28E-6;0;Intelsat
1.00271898;0.0002435;2.9891;81.529;353.6566;135.9099;0;1.27E-6;0;Intelsat
1.00272086;0.0002456;2.9906;81.5275;353.7728;9.0382;0;1.26E-6;0;Intelsat
1.00272464;0.0002523;2.9933;81.5232;354.2063;63.2328;0;1.22E-6;0;Intelsat
1.00272861;0.0002613;2.996;81.518;354.8328;116.8871;0;1.19E-6;0;Intelsat
1.00272918;0.000263;2.9964;81.5182;355.0415;168.8657;0;1.18E-6;0;Intelsat
1.00273144;0.0002683;2.9978;81.5171;355.4417;41.6905;0;1.16E-6;0;Intelsat
1.00273234;0.0002704;2.9983;81.5148;355.669;117.8135;0;1.16E-6;0;Intelsat
1.00273313;0.0002727;2.9988;81.5153;356.0039;186.7979;0;1.15E-6;0;Intelsat
1.00273509;0.0002776;3;81.5135;356.4123;17.6121;0;1.14E-6;0;Intelsat
1.00273648;0.0002806;3.0007;81.5119;356.7258;120.9654;0;1.14E-6;0;Intelsat
1.00273711;0.0002821;3.001;81.5119;356.9966;172.5129;0;1.13E-6;0;Intelsat
1.00274102;0.0002911;3.003;81.5084;357.9369;122.577;0;1.12E-6;0;Intelsat
1.00274135;0.0002918;3.0032;81.5083;358.0882;148.3436;0;1.12E-6;0;Intelsat
1.00274627;0.0003027;3.0055;81.5045;359.4719;149.7537;0;1.12E-6;0;Intelsat
1.00274771;0.0003052;3.0061;81.5033;0.0608;252.8335;0;1.12E-6;0;Intelsat
1.00274996;0.0003104;3.0071;81.5018;0.4649;47.9245;0;1.12E-6;0;Intelsat
1.00268355;0.0003355;3.0081;81.4998;349.2703;214.5632;0;1.13E-6;0;Intelsat
1.00268837;0.000343;3.0101;81.4955;350.6836;164.1468;0;1.13E-6;0;Intelsat
1.00268954;0.0003434;3.0106;81.4945;350.9656;241.5723;0;1.14E-6;0;Intelsat
1.00269425;0.0003503;3.0124;81.4907;352.2937;165.3281;0;1.14E-6;0;Intelsat
1.00269548;0.0003506;3.0128;81.4896;352.6682;242.6726;0;1.14E-6;0;Intelsat
1.00270025;0.0003567;3.0146;81.4855;354.0422;166.3707;0;1.14E-6;0;Intelsat
1.00270185;0.000357;3.0152;81.4837;354.3887;269.6608;0;1.15E-6;0;Intelsat
1.00270653;0.0003618;3.0169;81.4796;355.8166;185.6669;0;1.15E-6;0;Intelsat
1.00270781;0.0003621;3.0174;81.478;356.1359;270.722;0;1.15E-6;0;Intelsat
1.00271002;0.0003639;3.0182;81.4761;356.7882;39.6455;0;1.15E-6;0;Intelsat
1.00271206;0.0003655;3.019;81.4739;357.4984;168.5216;0;1.16E-6;0;Intelsat
1.00271361;0.0003656;3.0196;81.4721;357.8466;271.8113;0;1.16E-6;0;Intelsat
1.00271792;0.0003677;3.0212;81.4676;359.2096;181.7451;0;1.16E-6;0;Intelsat
1.00271942;0.0003676;3.0218;81.4658;359.4859;283.7493;0;1.17E-6;0;Intelsat
1.00272123;0.0003678;3.0225;81.4639;0.072;41.9584;0;1.17E-6;0;Intelsat
1.0027228;0.0003682;3.0231;81.462;0.6465;145.0654;0;1.17E-6;0;Intelsat
1.00272731;0.0003676;3.0249;81.457;1.7954;94.9072;0;1.18E-6;0;Intelsat
1.00272802;0.0003675;3.0252;81.456;2.0371;146.4873;0;1.18E-6;0;Intelsat
1.00273258;0.0003659;3.0271;81.4507;3.2498;122.152;0;1.2E-6;0;Intelsat
1.00273292;0.0003658;3.0273;81.4502;3.3762;147.9434;0;1.2E-6;0;Intelsat
